start=new Date('2021-08-26T00:00:00.000Z').valueOf();
sats=[{"CENTER_NAME":"EARTH","OBJECT_NAME":"STARLINK-2360","PERIOD":"95.592","FILE":"3103208","NORAD_CAT_ID":"47900","COUNTRY_CODE":"US","MEAN_MOTION_DOT":"0.00000759","REV_AT_EPOCH":"2648","REF_FRAME":"TEME","OBJECT_ID":"2021-021AS","RA_OF_ASC_NODE":"149.1833","MEAN_MOTION_DDOT":"0.0000000000000","ECCENTRICITY":"0.00022580","BSTAR":"0.00006989400000","PERIAPSIS":"545.654","EPHEMERIS_TYPE":"0","SEMIMAJOR_AXIS":"6925.353","DECAY_DATE":null,"RCS_SIZE":"LARGE","ARG_OF_PERICENTER":"82.7337","GP_ID":"183447266","ELEMENT_SET_NO":"999","INCLINATION":"53.0565","MEAN_ELEMENT_THEORY":"SGP4","TIME_SYSTEM":"UTC","MEAN_MOTION":"15.06398618","APOAPSIS":"548.782","OBJECT_TYPE":"PAYLOAD","SITE":"AFETR","TLE_LINE2":"2 47900  53.0565 149.1833 0002258  82.7337 277.3908 15.06398618 26485","EPOCH":"2021-08-25T21:48:44.705664","CLASSIFICATION_TYPE":"U","TLE_LINE1":"1 47900U 21021AS  21237.90885076  .00000759  00000-0  69894-4 0  9995","MEAN_ANOMALY":"277.3908","LAUNCH_DATE":"2021-03-14"},{"OBJECT_NAME":"STARLINK-2361","CENTER_NAME":"EARTH","FILE":"3103208","PERIOD":"95.592","NORAD_CAT_ID":"47901","MEAN_MOTION_DOT":"0.00000968","COUNTRY_CODE":"US","REV_AT_EPOCH":"2661","REF_FRAME":"TEME","OBJECT_ID":"2021-021AT","RA_OF_ASC_NODE":"139.1242","MEAN_MOTION_DDOT":"0.0000000000000","ECCENTRICITY":"0.00023380","BSTAR":"0.00008391400000","PERIAPSIS":"545.597","EPHEMERIS_TYPE":"0","SEMIMAJOR_AXIS":"6925.351","DECAY_DATE":null,"RCS_SIZE":"LARGE","ARG_OF_PERICENTER":"82.7796","GP_ID":"183445516","ELEMENT_SET_NO":"999","INCLINATION":"53.0449","MEAN_ELEMENT_THEORY":"SGP4","TIME_SYSTEM":"UTC","APOAPSIS":"548.835","MEAN_MOTION":"15.06399129","OBJECT_TYPE":"PAYLOAD","SITE":"AFETR","TLE_LINE2":"2 47901  53.0449 139.1242 0002338  82.7796 277.3458 15.06399129 26611","CLASSIFICATION_TYPE":"U","EPOCH":"2021-08-25T22:21:54.765504","TLE_LINE1":"1 47901U 21021AT  21237.93188386  .00000968  00000-0  83914-4 0  9990","LAUNCH_DATE":"2021-03-14","MEAN_ANOMALY":"277.3458"},{"MEAN_ANOMALY":"294.4250","LAUNCH_DATE":"2021-03-14","TLE_LINE1":"1 47902U 21021AU  21237.92360962 -.00000544  00000-0 -17626-4 0  9991","EPOCH":"2021-08-25T22:09:59.871168","CLASSIFICATION_TYPE":"U","SITE":"AFETR","TLE_LINE2":"2 47902  53.0547 159.1156 0001787  65.6925 294.4250 15.06396212 26449","OBJECT_TYPE":"PAYLOAD","MEAN_MOTION":"15.06396212","APOAPSIS":"548.463","TIME_SYSTEM":"UTC","MEAN_ELEMENT_THEORY":"SGP4","INCLINATION":"53.0547","ELEMENT_SET_NO":"999","GP_ID":"183446261","RCS_SIZE":"LARGE","ARG_OF_PERICENTER":"65.6925","DECAY_DATE":null,"SEMIMAJOR_AXIS":"6925.360","EPHEMERIS_TYPE":"0","PERIAPSIS":"545.988","BSTAR":"-0.00001762600000","ECCENTRICITY":"0.00017870","MEAN_MOTION_DDOT":"0.0000000000000","RA_OF_ASC_NODE":"159.1156","OBJECT_ID":"2021-021AU","REV_AT_EPOCH":"2644","REF_FRAME":"TEME","COUNTRY_CODE":"US","MEAN_MOTION_DOT":"-0.00000544","NORAD_CAT_ID":"47902","PERIOD":"95.592","FILE":"3103208","OBJECT_NAME":"STARLINK-2362","CENTER_NAME":"EARTH"},{"CLASSIFICATION_TYPE":"U","EPOCH":"2021-08-25T22:44:30.384096","TLE_LINE1":"1 47903U 21021AV  21237.94757389 -.00000812  00000-0 -35580-4 0  9994","MEAN_ANOMALY":"275.3503","LAUNCH_DATE":"2021-03-14","ARG_OF_PERICENTER":"84.7745","RCS_SIZE":"LARGE","ELEMENT_SET_NO":"999","INCLINATION":"53.0560","GP_ID":"183447007","TIME_SYSTEM":"UTC","MEAN_ELEMENT_THEORY":"SGP4","OBJECT_TYPE":"PAYLOAD","APOAPSIS":"548.812","MEAN_MOTION":"15.06392708","SITE":"AFETR","TLE_LINE2":"2 47903  53.0560 139.0123 0002276  84.7745 275.3503 15.06392708 26964","ECCENTRICITY":"0.00022760","MEAN_MOTION_DDOT":"0.0000000000000","BSTAR":"-0.00003558000000","PERIAPSIS":"545.660","EPHEMERIS_TYPE":"0","DECAY_DATE":null,"SEMIMAJOR_AXIS":"6925.371","FILE":"3103208","PERIOD":"95.593","CENTER_NAME":"EARTH","OBJECT_NAME":"STARLINK-2363","MEAN_MOTION_DOT":"-0.00000812","COUNTRY_CODE":"US","NORAD_CAT_ID":"47903","REV_AT_EPOCH":"2696","REF_FRAME":"TEME","OBJECT_ID":"2021-021AV","RA_OF_ASC_NODE":"139.0123"},{"CLASSIFICATION_TYPE":"U","EPOCH":"2021-08-25T22:39:11.732256","TLE_LINE1":"1 47904U 21021AW  21237.94388579  .00000509  00000-0  53106-4 0  9991","MEAN_ANOMALY":"279.8162","LAUNCH_DATE":"2021-03-14","RCS_SIZE":"LARGE","ARG_OF_PERICENTER":"80.3071","GP_ID":"183446766","INCLINATION":"53.0551","ELEMENT_SET_NO":"999","MEAN_MOTION":"15.06399285","APOAPSIS":"548.716","OBJECT_TYPE":"PAYLOAD","MEAN_ELEMENT_THEORY":"SGP4","TIME_SYSTEM":"UTC","SITE":"AFETR","TLE_LINE2":"2 47904  53.0551 139.0270 0002166  80.3071 279.8162 15.06399285 26608","MEAN_MOTION_DDOT":"0.0000000000000","ECCENTRICITY":"0.00021660","BSTAR":"0.00005310600000","PERIAPSIS":"545.716","SEMIMAJOR_AXIS":"6925.351","DECAY_DATE":null,"EPHEMERIS_TYPE":"0","OBJECT_NAME":"STARLINK-2364","CENTER_NAME":"EARTH","FILE":"3103208","PERIOD":"95.592","NORAD_CAT_ID":"47904","MEAN_MOTION_DOT":"0.00000509","COUNTRY_CODE":"US","OBJECT_ID":"2021-021AW","REV_AT_EPOCH":"2660","REF_FRAME":"TEME","RA_OF_ASC_NODE":"139.0270"},{"ARG_OF_PERICENTER":"84.6398","RCS_SIZE":"LARGE","GP_ID":"183446017","ELEMENT_SET_NO":"999","INCLINATION":"53.0558","APOAPSIS":"548.860","MEAN_MOTION":"15.06397668","OBJECT_TYPE":"PAYLOAD","MEAN_ELEMENT_THEORY":"SGP4","TIME_SYSTEM":"UTC","TLE_LINE2":"2 47905  53.0558 139.0436 0002367  84.6398 275.4861 15.06397668 26737","SITE":"AFETR","CLASSIFICATION_TYPE":"U","EPOCH":"2021-08-25T22:33:54.020448","TLE_LINE1":"1 47905U 21021AX  21237.94020857  .00001064  00000-0  90336-4 0  9997","MEAN_ANOMALY":"275.4861","LAUNCH_DATE":"2021-03-14","OBJECT_NAME":"STARLINK-2365","CENTER_NAME":"EARTH","PERIOD":"95.592","FILE":"3103208","NORAD_CAT_ID":"47905","MEAN_MOTION_DOT":"0.00001064","COUNTRY_CODE":"US","OBJECT_ID":"2021-021AX","REV_AT_EPOCH":"2673","REF_FRAME":"TEME","RA_OF_ASC_NODE":"139.0436","MEAN_MOTION_DDOT":"0.0000000000000","ECCENTRICITY":"0.00023670","BSTAR":"0.00009033600000","PERIAPSIS":"545.581","SEMIMAJOR_AXIS":"6925.356","DECAY_DATE":null,"EPHEMERIS_TYPE":"0"},{"EPOCH":"2021-08-25T21:52:41.859840","CLASSIFICATION_TYPE":"U","MEAN_ANOMALY":"321.7902","LAUNCH_DATE":"2021-03-14","TLE_LINE1":"1 47906U 21021AY  21237.91159560  .00015194  00000-0  17941-3 0  9998","INCLINATION":"53.0526","ELEMENT_SET_NO":"999","GP_ID":"183445761","ARG_OF_PERICENTER":"38.3265","RCS_SIZE":"LARGE","SITE":"AFETR","TLE_LINE2":"2 47906  53.0526 124.9986 0002183  38.3265 321.7902 15.61574043 26928","TIME_SYSTEM":"UTC","MEAN_ELEMENT_THEORY":"SGP4","OBJECT_TYPE":"PAYLOAD","MEAN_MOTION":"15.61574043","APOAPSIS":"384.588","BSTAR":"0.00017941000000","ECCENTRICITY":"0.00021830","MEAN_MOTION_DDOT":"0.0000000000000","EPHEMERIS_TYPE":"0","DECAY_DATE":null,"SEMIMAJOR_AXIS":"6761.247","PERIAPSIS":"381.636","COUNTRY_CODE":"US","MEAN_MOTION_DOT":"0.00015194","NORAD_CAT_ID":"47906","PERIOD":"92.215","FILE":"3103208","OBJECT_NAME":"STARLINK-2366","CENTER_NAME":"EARTH","RA_OF_ASC_NODE":"124.9986","REV_AT_EPOCH":"2692","REF_FRAME":"TEME","OBJECT_ID":"2021-021AY"},{"CLASSIFICATION_TYPE":"U","EPOCH":"2021-08-25T22:47:09.945024","LAUNCH_DATE":"2021-03-14","MEAN_ANOMALY":"297.8678","TLE_LINE1":"1 47907U 21021AZ  21237.94942066 -.00000966  00000-0 -45942-4 0  9999","INCLINATION":"53.0564","ELEMENT_SET_NO":"999","GP_ID":"183446507","ARG_OF_PERICENTER":"62.2525","RCS_SIZE":"LARGE","TLE_LINE2":"2 47907  53.0564 159.0009 0002113  62.2525 297.8678 15.06392435 26301","SITE":"AFETR","OBJECT_TYPE":"PAYLOAD","APOAPSIS":"548.700","MEAN_MOTION":"15.06392435","TIME_SYSTEM":"UTC","MEAN_ELEMENT_THEORY":"SGP4","BSTAR":"-0.00004594200000","ECCENTRICITY":"0.00021130","MEAN_MOTION_DDOT":"0.0000000000000","DECAY_DATE":null,"SEMIMAJOR_AXIS":"6925.372","EPHEMERIS_TYPE":"0","PERIAPSIS":"545.773","MEAN_MOTION_DOT":"-0.00000966","COUNTRY_CODE":"US","NORAD_CAT_ID":"47907","PERIOD":"95.593","FILE":"3103208","CENTER_NAME":"EARTH","OBJECT_NAME":"STARLINK-2367","RA_OF_ASC_NODE":"159.0009","OBJECT_ID":"2021-021AZ","REV_AT_EPOCH":"2630","REF_FRAME":"TEME"},{"INCLINATION":"53.0559","ELEMENT_SET_NO":"999","GP_ID":"183447267","RCS_SIZE":"LARGE","ARG_OF_PERICENTER":"65.5454","SITE":"AFETR","TLE_LINE2":"2 47908  53.0559 158.9664 0002044  65.5454 294.5748 15.06402159 26331","TIME_SYSTEM":"UTC","MEAN_ELEMENT_THEORY":"SGP4","OBJECT_TYPE":"PAYLOAD","MEAN_MOTION":"15.06402159","APOAPSIS":"548.622","CLASSIFICATION_TYPE":"U","EPOCH":"2021-08-25T22:57:46.105632","LAUNCH_DATE":"2021-03-14","MEAN_ANOMALY":"294.5748","TLE_LINE1":"1 47908U 21021BA  21237.95678363  .00001263  00000-0  10371-3 0  9993","COUNTRY_CODE":"US","MEAN_MOTION_DOT":"0.00001263","NORAD_CAT_ID":"47908","PERIOD":"95.592","FILE":"3103208","OBJECT_NAME":"STARLINK-2368","CENTER_NAME":"EARTH","RA_OF_ASC_NODE":"158.9664","REF_FRAME":"TEME","REV_AT_EPOCH":"2633","OBJECT_ID":"2021-021BA","BSTAR":"0.00010371000000","ECCENTRICITY":"0.00020440","MEAN_MOTION_DDOT":"0.0000000000000","EPHEMERIS_TYPE":"0","DECAY_DATE":null,"SEMIMAJOR_AXIS":"6925.342","PERIAPSIS":"545.791"},{"PERIOD":"95.593","FILE":"3103208","OBJECT_NAME":"STARLINK-2369","CENTER_NAME":"EARTH","COUNTRY_CODE":"US","MEAN_MOTION_DOT":"-0.00001138","NORAD_CAT_ID":"47909","REV_AT_EPOCH":"2663","REF_FRAME":"TEME","OBJECT_ID":"2021-021BB","RA_OF_ASC_NODE":"149.1961","ECCENTRICITY":"0.00023750","MEAN_MOTION_DDOT":"0.0000000000000","BSTAR":"-0.00005749100000","PERIAPSIS":"545.595","EPHEMERIS_TYPE":"0","DECAY_DATE":null,"SEMIMAJOR_AXIS":"6925.375","ARG_OF_PERICENTER":"72.5589","RCS_SIZE":"MEDIUM","INCLINATION":"53.0563","ELEMENT_SET_NO":"999","GP_ID":"183445517","TIME_SYSTEM":"UTC","MEAN_ELEMENT_THEORY":"SGP4","OBJECT_TYPE":"PAYLOAD","MEAN_MOTION":"15.06391482","APOAPSIS":"548.884","TLE_LINE2":"2 47909  53.0563 149.1961 0002375  72.5589 287.5659 15.06391482 26635","SITE":"AFETR","CLASSIFICATION_TYPE":"U","EPOCH":"2021-08-25T21:44:47.968800","TLE_LINE1":"1 47909U 21021BB  21237.90611075 -.00001138  00000-0 -57491-4 0  9994","MEAN_ANOMALY":"287.5659","LAUNCH_DATE":"2021-03-14"}];
